CCSDS_OMM_VERS = 2.0
CREATION_DATE  = 
ORIGINATOR     = 

OBJECT_NAME    = SL-16 R/B
OBJECT_ID      = 1993-016B
CENTER_NAME    = EARTH
REF_FRAME      = TEME
TIME_SYSTEM    = UTC
MEAN_ELEMENT_THEORY = SGP/SGP4

EPOCH          = 2026-01-14T06:54:12.303360
MEAN_MOTION    = 14.15293772
ECCENTRICITY   = .00086531
INCLINATION    = 71.0088
RA_OF_ASC_NODE = 329.4428
ARG_OF_PERICENTER = 34.9841
MEAN_ANOMALY   = 325.1849

EPHEMERIS_TYPE = 0
CLASSIFICATION_TYPE = U
NORAD_CAT_ID   = 22566
ELEMENT_SET_NO = 999
REV_AT_EPOCH   = 69447
BSTAR          = -.74682154E-4
MEAN_MOTION_DOT = -.193E-5
MEAN_MOTION_DDOT = 0

CCSDS_OMM_VERS = 2.0
CREATION_DATE  = 
ORIGINATOR     = 

OBJECT_NAME    = COSMOS 2242
OBJECT_ID      = 1993-024A
CENTER_NAME    = EARTH
REF_FRAME      = TEME
TIME_SYSTEM    = UTC
MEAN_ELEMENT_THEORY = SGP/SGP4

EPOCH          = 2026-01-14T08:08:38.579424
MEAN_MOTION    = 14.96270488
ECCENTRICITY   = .00177054
INCLINATION    = 82.5209
RA_OF_ASC_NODE = 318.6845
ARG_OF_PERICENTER = 124.0234
MEAN_ANOMALY   = 236.2673

EPHEMERIS_TYPE = 0
CLASSIFICATION_TYPE = U
NORAD_CAT_ID   = 22626
ELEMENT_SET_NO = 999
REV_AT_EPOCH   = 77226
BSTAR          = .13689119E-3
MEAN_MOTION_DOT = .1576E-4
MEAN_MOTION_DDOT = 0

CCSDS_OMM_VERS = 2.0
CREATION_DATE  = 
ORIGINATOR     = 

OBJECT_NAME    = SL-16 R/B
OBJECT_ID      = 1993-059B
CENTER_NAME    = EARTH
REF_FRAME      = TEME
TIME_SYSTEM    = UTC
MEAN_ELEMENT_THEORY = SGP/SGP4

EPOCH          = 2026-01-14T13:15:52.397856
MEAN_MOTION    = 14.17220628
ECCENTRICITY   = .00193241
INCLINATION    = 70.9909
RA_OF_ASC_NODE = 125.2938
ARG_OF_PERICENTER = 290.0637
MEAN_ANOMALY   = 69.8407

EPHEMERIS_TYPE = 0
CLASSIFICATION_TYPE = U
NORAD_CAT_ID   = 22803
ELEMENT_SET_NO = 999
REV_AT_EPOCH   = 67186
BSTAR          = .13642738E-3
MEAN_MOTION_DOT = .228E-5
MEAN_MOTION_DDOT = 0

CCSDS_OMM_VERS = 2.0
CREATION_DATE  = 
ORIGINATOR     = 

OBJECT_NAME    = ARIANE 40 R/B
OBJECT_ID      = 1993-061H
CENTER_NAME    = EARTH
REF_FRAME      = TEME
TIME_SYSTEM    = UTC
MEAN_ELEMENT_THEORY = SGP/SGP4

EPOCH          = 2026-01-14T10:33:10.972512
MEAN_MOTION    = 14.32825359
ECCENTRICITY   = .00118176
INCLINATION    = 98.5027
RA_OF_ASC_NODE = 84.3674
ARG_OF_PERICENTER = 86.2114
MEAN_ANOMALY   = 274.0421

EPHEMERIS_TYPE = 0
CLASSIFICATION_TYPE = U
NORAD_CAT_ID   = 22830
ELEMENT_SET_NO = 999
REV_AT_EPOCH   = 68633
BSTAR          = .68592299E-4
MEAN_MOTION_DOT = .144E-5
MEAN_MOTION_DDOT = 0

CCSDS_OMM_VERS = 2.0
CREATION_DATE  = 
ORIGINATOR     = 

OBJECT_NAME    = COSMOS 2278
OBJECT_ID      = 1994-023A
CENTER_NAME    = EARTH
REF_FRAME      = TEME
TIME_SYSTEM    = UTC
MEAN_ELEMENT_THEORY = SGP/SGP4

EPOCH          = 2026-01-14T03:21:44.656416
MEAN_MOTION    = 14.14363829
ECCENTRICITY   = .00067392
INCLINATION    = 71.0550
RA_OF_ASC_NODE = 289.2244
ARG_OF_PERICENTER = 119.2641
MEAN_ANOMALY   = 240.9156

EPHEMERIS_TYPE = 0
CLASSIFICATION_TYPE = U
NORAD_CAT_ID   = 23087
ELEMENT_SET_NO = 999
REV_AT_EPOCH   = 63709
BSTAR          = .1255706E-3
MEAN_MOTION_DOT = .193E-5
MEAN_MOTION_DDOT = 0

CCSDS_OMM_VERS = 2.0
CREATION_DATE  = 
ORIGINATOR     = 

OBJECT_NAME    = SL-16 R/B
OBJECT_ID      = 1994-023B
CENTER_NAME    = EARTH
REF_FRAME      = TEME
TIME_SYSTEM    = UTC
MEAN_ELEMENT_THEORY = SGP/SGP4

EPOCH          = 2026-01-14T13:33:17.911296
MEAN_MOTION    = 14.15005432
ECCENTRICITY   = .00032972
INCLINATION    = 70.9989
RA_OF_ASC_NODE = 184.5522
ARG_OF_PERICENTER = 340.3653
MEAN_ANOMALY   = 19.7342

EPHEMERIS_TYPE = 0
CLASSIFICATION_TYPE = U
NORAD_CAT_ID   = 23088
ELEMENT_SET_NO = 999
REV_AT_EPOCH   = 63843
BSTAR          = .13955102E-3
MEAN_MOTION_DOT = .223E-5
MEAN_MOTION_DDOT = 0

CCSDS_OMM_VERS = 2.0
CREATION_DATE  = 
ORIGINATOR     = 

OBJECT_NAME    = SL-16 R/B
OBJECT_ID      = 1994-074B
CENTER_NAME    = EARTH
REF_FRAME      = TEME
TIME_SYSTEM    = UTC
MEAN_ELEMENT_THEORY = SGP/SGP4

EPOCH          = 2026-01-14T13:24:45.917856
MEAN_MOTION    = 14.79332581
ECCENTRICITY   = .00075873
INCLINATION    = 97.7173
RA_OF_ASC_NODE = 47.5541
ARG_OF_PERICENTER = 46.7457
MEAN_ANOMALY   = 71.7813

EPHEMERIS_TYPE = 0
CLASSIFICATION_TYPE = U
NORAD_CAT_ID   = 23343
ELEMENT_SET_NO = 999
REV_AT_EPOCH   = 67924
BSTAR          = .46326911E-4
MEAN_MOTION_DOT = .296E-5
MEAN_MOTION_DDOT = 0

CCSDS_OMM_VERS = 2.0
CREATION_DATE  = 
ORIGINATOR     = 

OBJECT_NAME    = SL-16 R/B
OBJECT_ID      = 1994-077B
CENTER_NAME    = EARTH
REF_FRAME      = TEME
TIME_SYSTEM    = UTC
MEAN_ELEMENT_THEORY = SGP/SGP4

EPOCH          = 2026-01-14T11:55:29.226720
MEAN_MOTION    = 14.15554768
ECCENTRICITY   = .00047896
INCLINATION    = 70.9836
RA_OF_ASC_NODE = 106.5028
ARG_OF_PERICENTER = 257.7401
MEAN_ANOMALY   = 102.3186

EPHEMERIS_TYPE = 0
CLASSIFICATION_TYPE = U
NORAD_CAT_ID   = 23405
ELEMENT_SET_NO = 999
REV_AT_EPOCH   = 60856
BSTAR          = .16204374E-3
MEAN_MOTION_DOT = .269E-5
MEAN_MOTION_DDOT = 0

CCSDS_OMM_VERS = 2.0
CREATION_DATE  = 
ORIGINATOR     = 

OBJECT_NAME    = ARIANE 40+ R/B
OBJECT_ID      = 1995-021B
CENTER_NAME    = EARTH
REF_FRAME      = TEME
TIME_SYSTEM    = UTC
MEAN_ELEMENT_THEORY = SGP/SGP4

EPOCH          = 2026-01-14T04:25:20.056224
MEAN_MOTION    = 14.39723826
ECCENTRICITY   = .00057862
INCLINATION    = 98.4605
RA_OF_ASC_NODE = 86.3752
ARG_OF_PERICENTER = 310.9888
MEAN_ANOMALY   = 67.7839

EPHEMERIS_TYPE = 0
CLASSIFICATION_TYPE = U
NORAD_CAT_ID   = 23561
ELEMENT_SET_NO = 999
REV_AT_EPOCH   = 61140
BSTAR          = .7677842E-4
MEAN_MOTION_DOT = .197E-5
MEAN_MOTION_DDOT = 0

CCSDS_OMM_VERS = 2.0
CREATION_DATE  = 
ORIGINATOR     = 

OBJECT_NAME    = SL-16 R/B
OBJECT_ID      = 1995-058B
CENTER_NAME    = EARTH
REF_FRAME      = TEME
TIME_SYSTEM    = UTC
MEAN_ELEMENT_THEORY = SGP/SGP4

EPOCH          = 2026-01-14T05:14:37.742496
MEAN_MOTION    = 14.15490091
ECCENTRICITY   = .00136821
INCLINATION    = 71.0228
RA_OF_ASC_NODE = 294.6162
ARG_OF_PERICENTER = 212.0849
MEAN_ANOMALY   = 147.9442

EPHEMERIS_TYPE = 0
CLASSIFICATION_TYPE = U
NORAD_CAT_ID   = 23705
ELEMENT_SET_NO = 999
REV_AT_EPOCH   = 56014
BSTAR          = .16596479E-4
MEAN_MOTION_DOT = -.15E-6
MEAN_MOTION_DDOT = 0

CCSDS_OMM_VERS = 2.0
CREATION_DATE  = 
ORIGINATOR     = 

OBJECT_NAME    = SL-16 R/B
OBJECT_ID      = 1996-051B
CENTER_NAME    = EARTH
REF_FRAME      = TEME
TIME_SYSTEM    = UTC
MEAN_ELEMENT_THEORY = SGP/SGP4

EPOCH          = 2026-01-14T05:00:07.420608
MEAN_MOTION    = 14.12400743
ECCENTRICITY   = .00190039
INCLINATION    = 70.7595
RA_OF_ASC_NODE = 290.5582
ARG_OF_PERICENTER = 221.3509
MEAN_ANOMALY   = 138.6173

EPHEMERIS_TYPE = 0
CLASSIFICATION_TYPE = U
NORAD_CAT_ID   = 24298
ELEMENT_SET_NO = 999
REV_AT_EPOCH   = 51395
BSTAR          = .2591001E-4
MEAN_MOTION_DOT = -.1E-7
MEAN_MOTION_DDOT = 0

CCSDS_OMM_VERS = 2.0
CREATION_DATE  = 
ORIGINATOR     = 

OBJECT_NAME    = ORBVIEW 2 (SEASTAR)
OBJECT_ID      = 1997-037A
CENTER_NAME    = EARTH
REF_FRAME      = TEME
TIME_SYSTEM    = UTC
MEAN_ELEMENT_THEORY = SGP/SGP4

EPOCH          = 2026-01-14T09:32:59.679744
MEAN_MOTION    = 14.35444999
ECCENTRICITY   = .00018036
INCLINATION    = 98.8480
RA_OF_ASC_NODE = 177.2995
ARG_OF_PERICENTER = 195.4161
MEAN_ANOMALY   = 164.6969

EPHEMERIS_TYPE = 0
CLASSIFICATION_TYPE = U
NORAD_CAT_ID   = 24883
ELEMENT_SET_NO = 999
REV_AT_EPOCH   = 50068
BSTAR          = .84984879E-4
MEAN_MOTION_DOT = .198E-5
MEAN_MOTION_DDOT = 0

