SL-16 R/B               
1 22566U 93016B   26014.28764240 -.00000193  00000+0 -74682-4 0  9991
2 22566  71.0088 329.4428 0008653  34.9841 325.1849 14.15293772694473
COSMOS 2242             
1 22626U 93024A   26014.33933541  .00001576  00000+0  13689-3 0  9998
2 22626  82.5209 318.6845 0017705 124.0234 236.2673 14.96270488772269
SL-16 R/B               
1 22803U 93059B   26014.55268979  .00000228  00000+0  13643-3 0  9996
2 22803  70.9909 125.2938 0019324 290.0637  69.8407 14.17220628671862
ARIANE 40 R/B           
1 22830U 93061H   26014.43971033  .00000144  00000+0  68592-4 0  9999
2 22830  98.5027  84.3674 0011817  86.2114 274.0421 14.32825359686338
COSMOS 2278             
1 23087U 94023A   26014.14010019  .00000193  00000+0  12557-3 0  9992
2 23087  71.0550 289.2244 0006739 119.2641 240.9156 14.14363829637093
SL-16 R/B               
1 23088U 94023B   26014.56479064  .00000223  00000+0  13955-3 0  9995
2 23088  70.9989 184.5522 0003297 340.3653  19.7342 14.15005432638432
SL-16 R/B               
1 23343U 94074B   26014.55886479  .00000296  00000+0  46327-4 0  9996
2 23343  97.7173  47.5541 0007587  46.7457  71.7813 14.79332581679245
SL-16 R/B               
1 23405U 94077B   26014.49686605  .00000269  00000+0  16204-3 0  9990
2 23405  70.9836 106.5028 0004789 257.7401 102.3186 14.15554768608567
ARIANE 40+ R/B          
1 23561U 95021B   26014.18425991  .00000197  00000+0  76778-4 0  9991
2 23561  98.4605  86.3752 0005786 310.9888  67.7839 14.39723826611402
SL-16 R/B               
1 23705U 95058B   26014.21849239 -.00000015  00000+0  16596-4 0  9992
2 23705  71.0228 294.6162 0013682 212.0849 147.9442 14.15490091560146
SL-16 R/B               
1 24298U 96051B   26014.20841922 -.00000001  00000+0  25910-4 0  9999
2 24298  70.7595 290.5582 0019003 221.3509 138.6173 14.12400743513954
ORBVIEW 2 (SEASTAR)     
1 24883U 97037A   26014.39791296  .00000198  00000+0  84985-4 0  9995
2 24883  98.8480 177.2995 0001803 195.4161 164.6969 14.35444999500685
